IRIDIUM 144             
1 43249U 18030A   25140.57337313  .00000018  00000+0 -66025-6 0  9992
2 43249  86.3947  94.5501 0002323  86.8461 273.3000 14.34217745373868
IRIDIUM 149             
1 43250U 18030B   25140.78902160  .00000048  00000+0  99102-5 0  9998
2 43250  86.3944  94.4311 0002454  86.0267 274.1209 14.34217852373911
IRIDIUM 157             
1 43251U 18030C   25140.80804825  .00000076  00000+0  20003-4 0  9995
2 43251  86.3945  94.4678 0002091  81.9746 278.1687 14.34216992373897
IRIDIUM 140             
1 43252U 18030D   25140.61777154  .00000008  00000+0 -43103-5 0  9992
2 43252  86.3947  94.5611 0002349  88.8839 271.2625 14.34217609373929
IRIDIUM 145             
1 43253U 18030E   25140.81439236  .00000051  00000+0  11060-4 0  9994
2 43253  86.3945  94.4517 0002655  85.5202 274.6297 14.34217733373885
IRIDIUM 146             
1 43254U 18030F   25140.79536455  .00000127  00000+0  38259-4 0  9996
2 43254  86.3945  94.4733 0002693  86.1234 274.0270 14.34217152373891
IRIDIUM 148             
1 43255U 18030G   25140.62412168  .00000229  00000+0  74790-4 0  9996
2 43255  86.3946  94.5820 0002356  81.2888 278.8574 14.34222191373908
IRIDIUM 142             
1 43256U 18030H   25140.80170754  .00000121  00000+0  36011-4 0  9994
2 43256  86.3942  94.4108 0002809  83.3950 276.7565 14.34217063373896
